[
  {
    "OBJECT_NAME": "STARLINK-34972",
    "OBJECT_ID": "25175Q",
    "EPOCH": "2025-11-11T05:01:51.328704",
    "MEAN_MOTION": 15.05651611,
    "ECCENTRICITY": 0.0001761,
    "INCLINATION": 97.6009,
    "RA_OF_ASC_NODE": 185.8903,
    "ARG_OF_PERICENTER": 85.3007,
    "MEAN_ANOMALY": 274.8421,
    "EPHEMERIS_TYPE": 0,
    "CLASSIFICATION_TYPE": "U",
    "NORAD_CAT_ID": 65188,
    "ELEMENT_SET_NO": 999,
    "REV_AT_EPOCH": 1478,
    "BSTAR": 0.00078549,
    "MEAN_MOTION_DOT": 0.00011292,
    "MEAN_MOTION_DDOT": 0.0,
    "TLE_LINE1": "1 65188U 25175Q   25315.20962186  .00011292  00000+0  78549-3 0  9998",
    "TLE_LINE2": "2 65188  97.6009 185.8903 0001761  85.3007 274.8421 15.05651611 14782",
    "COMMENT": "Grouped by shell and plane from TLE"
  },
  {
    "OBJECT_NAME": "STARLINK-34866",
    "OBJECT_ID": "25175R",
    "EPOCH": "2025-11-11T04:57:52.363584",
    "MEAN_MOTION": 15.05659132,
    "ECCENTRICITY": 0.0002745,
    "INCLINATION": 97.6018,
    "RA_OF_ASC_NODE": 185.8938,
    "ARG_OF_PERICENTER": 76.3247,
    "MEAN_ANOMALY": 283.8285,
    "EPHEMERIS_TYPE": 0,
    "CLASSIFICATION_TYPE": "U",
    "NORAD_CAT_ID": 65189,
    "ELEMENT_SET_NO": 999,
    "REV_AT_EPOCH": 1481,
    "BSTAR": 0.00081624,
    "MEAN_MOTION_DOT": 0.0001174,
    "MEAN_MOTION_DDOT": 0.0,
    "TLE_LINE1": "1 65189U 25175R   25315.20685606  .00011740  00000+0  81624-3 0  9994",
    "TLE_LINE2": "2 65189  97.6018 185.8938 0002745  76.3247 283.8285 15.05659132 14818",
    "COMMENT": "Grouped by shell and plane from TLE"
  },
  {
    "OBJECT_NAME": "STARLINK-34917",
    "OBJECT_ID": "25175S",
    "EPOCH": "2025-11-11T08:00:03.000384",
    "MEAN_MOTION": 15.0568235,
    "ECCENTRICITY": 0.0002413,
    "INCLINATION": 97.603,
    "RA_OF_ASC_NODE": 186.0263,
    "ARG_OF_PERICENTER": 86.358,
    "MEAN_ANOMALY": 254.1117,
    "EPHEMERIS_TYPE": 0,
    "CLASSIFICATION_TYPE": "U",
    "NORAD_CAT_ID": 65190,
    "ELEMENT_SET_NO": 999,
    "REV_AT_EPOCH": 580,
    "BSTAR": 0.0,
    "MEAN_MOTION_DOT": -0.00033316,
    "MEAN_MOTION_DDOT": 0.0,
    "TLE_LINE1": "1 65190U 25175S   25315.33336806 -.00033316  00000+0 -23134-2 0  9991",
    "TLE_LINE2": "2 65190  97.6030 186.0263 0002413  86.3580 254.1117 15.05682350  5803",
    "COMMENT": "Grouped by shell and plane from TLE"
  },
  {
    "OBJECT_NAME": "STARLINK-34948",
    "OBJECT_ID": "25175T",
    "EPOCH": "2025-11-11T04:49:53.752512",
    "MEAN_MOTION": 15.05656592,
    "ECCENTRICITY": 0.000289,
    "INCLINATION": 97.602,
    "RA_OF_ASC_NODE": 185.8985,
    "ARG_OF_PERICENTER": 90.9803,
    "MEAN_ANOMALY": 269.1755,
    "EPHEMERIS_TYPE": 0,
    "CLASSIFICATION_TYPE": "U",
    "NORAD_CAT_ID": 65191,
    "ELEMENT_SET_NO": 999,
    "REV_AT_EPOCH": 1481,
    "BSTAR": 0.00060844,
    "MEAN_MOTION_DOT": 8.731e-05,
    "MEAN_MOTION_DDOT": 0.0,
    "TLE_LINE1": "1 65191U 25175T   25315.20131658  .00008731  00000+0  60844-3 0  9997",
    "TLE_LINE2": "2 65191  97.6020 185.8985 0002890  90.9803 269.1755 15.05656592 14813",
    "COMMENT": "Grouped by shell and plane from TLE"
  },
  {
    "OBJECT_NAME": "STARLINK-34955",
    "OBJECT_ID": "25175U",
    "EPOCH": "2025-11-11T04:45:53.741952",
    "MEAN_MOTION": 15.05680624,
    "ECCENTRICITY": 0.0002481,
    "INCLINATION": 97.6033,
    "RA_OF_ASC_NODE": 185.9037,
    "ARG_OF_PERICENTER": 84.9542,
    "MEAN_ANOMALY": 275.1968,
    "EPHEMERIS_TYPE": 0,
    "CLASSIFICATION_TYPE": "U",
    "NORAD_CAT_ID": 65192,
    "ELEMENT_SET_NO": 999,
    "REV_AT_EPOCH": 1478,
    "BSTAR": 0.0011546,
    "MEAN_MOTION_DOT": 0.00016653,
    "MEAN_MOTION_DDOT": 0.0,
    "TLE_LINE1": "1 65192U 25175U   25315.19853868  .00016653  00000+0  11546-2 0  9996",
    "TLE_LINE2": "2 65192  97.6033 185.9037 0002481  84.9542 275.1968 15.05680624 14788",
    "COMMENT": "Grouped by shell and plane from TLE"
  },
  {
    "OBJECT_NAME": "STARLINK-34950",
    "OBJECT_ID": "25175V",
    "EPOCH": "2025-11-11T04:41:55.746240",
    "MEAN_MOTION": 15.05669695,
    "ECCENTRICITY": 0.0003492,
    "INCLINATION": 97.6022,
    "RA_OF_ASC_NODE": 185.9088,
    "ARG_OF_PERICENTER": 82.9352,
    "MEAN_ANOMALY": 277.2272,
    "EPHEMERIS_TYPE": 0,
    "CLASSIFICATION_TYPE": "U",
    "NORAD_CAT_ID": 65193,
    "ELEMENT_SET_NO": 999,
    "REV_AT_EPOCH": 1478,
    "BSTAR": 0.0005325600000000001,
    "MEAN_MOTION_DOT": 7.637e-05,
    "MEAN_MOTION_DDOT": 0.0,
    "TLE_LINE1": "1 65193U 25175V   25315.19578410  .00007637  00000+0  53256-3 0  9991",
    "TLE_LINE2": "2 65193  97.6022 185.9088 0003492  82.9352 277.2272 15.05669695 14789",
    "COMMENT": "Grouped by shell and plane from TLE"
  },
  {
    "OBJECT_NAME": "STARLINK-34926",
    "OBJECT_ID": "25175W",
    "EPOCH": "2025-11-11T04:25:59.145312",
    "MEAN_MOTION": 15.0568176,
    "ECCENTRICITY": 0.0002078,
    "INCLINATION": 97.6016,
    "RA_OF_ASC_NODE": 185.9239,
    "ARG_OF_PERICENTER": 88.39,
    "MEAN_ANOMALY": 271.7565,
    "EPHEMERIS_TYPE": 0,
    "CLASSIFICATION_TYPE": "U",
    "NORAD_CAT_ID": 65194,
    "ELEMENT_SET_NO": 999,
    "REV_AT_EPOCH": 1478,
    "BSTAR": 0.00067902,
    "MEAN_MOTION_DOT": 9.759e-05,
    "MEAN_MOTION_DDOT": 0.0,
    "TLE_LINE1": "1 65194U 25175W   25315.18471233  .00009759  00000+0  67902-3 0  9996",
    "TLE_LINE2": "2 65194  97.6016 185.9239 0002078  88.3900 271.7565 15.05681760 14780",
    "COMMENT": "Grouped by shell and plane from TLE"
  },
  {
    "OBJECT_NAME": "STARLINK-34928",
    "OBJECT_ID": "25175X",
    "EPOCH": "2025-11-11T04:29:57.362208",
    "MEAN_MOTION": 15.05672298,
    "ECCENTRICITY": 0.000344,
    "INCLINATION": 97.5962,
    "RA_OF_ASC_NODE": 185.9206,
    "ARG_OF_PERICENTER": 89.1777,
    "MEAN_ANOMALY": 270.9844,
    "EPHEMERIS_TYPE": 0,
    "CLASSIFICATION_TYPE": "U",
    "NORAD_CAT_ID": 65195,
    "ELEMENT_SET_NO": 999,
    "REV_AT_EPOCH": 1481,
    "BSTAR": 0.0005283999999999999,
    "MEAN_MOTION_DOT": 7.577e-05,
    "MEAN_MOTION_DDOT": 0.0,
    "TLE_LINE1": "1 65195U 25175X   25315.18746947  .00007577  00000+0  52840-3 0  9995",
    "TLE_LINE2": "2 65195  97.5962 185.9206 0003440  89.1777 270.9844 15.05672298 14810",
    "COMMENT": "Grouped by shell and plane from TLE"
  },
  {
    "OBJECT_NAME": "STARLINK-34927",
    "OBJECT_ID": "25175Y",
    "EPOCH": "2025-11-11T04:37:55.995744",
    "MEAN_MOTION": 15.05664626,
    "ECCENTRICITY": 0.0002522,
    "INCLINATION": 97.6002,
    "RA_OF_ASC_NODE": 185.9113,
    "ARG_OF_PERICENTER": 75.132,
    "MEAN_ANOMALY": 285.0186,
    "EPHEMERIS_TYPE": 0,
    "CLASSIFICATION_TYPE": "U",
    "NORAD_CAT_ID": 65196,
    "ELEMENT_SET_NO": 999,
    "REV_AT_EPOCH": 1481,
    "BSTAR": 0.0010045,
    "MEAN_MOTION_DOT": 0.00014469,
    "MEAN_MOTION_DDOT": 0.0,
    "TLE_LINE1": "1 65196U 25175Y   25315.19300921  .00014469  00000+0  10045-2 0  9993",
    "TLE_LINE2": "2 65196  97.6002 185.9113 0002522  75.1320 285.0186 15.05664626 14815",
    "COMMENT": "Grouped by shell and plane from TLE"
  },
  {
    "OBJECT_NAME": "STARLINK-34952",
    "OBJECT_ID": "25175Z",
    "EPOCH": "2025-11-11T04:33:56.763648",
    "MEAN_MOTION": 15.05665244,
    "ECCENTRICITY": 0.0002437,
    "INCLINATION": 97.6011,
    "RA_OF_ASC_NODE": 185.9149,
    "ARG_OF_PERICENTER": 98.3175,
    "MEAN_ANOMALY": 261.8328,
    "EPHEMERIS_TYPE": 0,
    "CLASSIFICATION_TYPE": "U",
    "NORAD_CAT_ID": 65197,
    "ELEMENT_SET_NO": 999,
    "REV_AT_EPOCH": 1481,
    "BSTAR": 0.0010182,
    "MEAN_MOTION_DOT": 0.00014667,
    "MEAN_MOTION_DDOT": 0.0,
    "TLE_LINE1": "1 65197U 25175Z   25315.19024032  .00014667  00000+0  10182-2 0  9992",
    "TLE_LINE2": "2 65197  97.6011 185.9149 0002437  98.3175 261.8328 15.05665244 14812",
    "COMMENT": "Grouped by shell and plane from TLE"
  },
  {
    "OBJECT_NAME": "STARLINK-34985",
    "OBJECT_ID": "25191A",
    "EPOCH": "2025-11-11T05:51:44.162496",
    "MEAN_MOTION": 15.05656125,
    "ECCENTRICITY": 0.0002389,
    "INCLINATION": 97.6028,
    "RA_OF_ASC_NODE": 184.7228,
    "ARG_OF_PERICENTER": 89.5618,
    "MEAN_ANOMALY": 270.5883,
    "EPHEMERIS_TYPE": 0,
    "CLASSIFICATION_TYPE": "U",
    "NORAD_CAT_ID": 65379,
    "ELEMENT_SET_NO": 999,
    "REV_AT_EPOCH": 1244,
    "BSTAR": 0.00041948999999999996,
    "MEAN_MOTION_DOT": 5.998e-05,
    "MEAN_MOTION_DDOT": 0.0,
    "TLE_LINE1": "1 65379U 25191A   25315.24426114  .00005998  00000+0  41949-3 0  9998",
    "TLE_LINE2": "2 65379  97.6028 184.7228 0002389  89.5618 270.5883 15.05656125 12445",
    "COMMENT": "Grouped by shell and plane from TLE"
  },
  {
    "OBJECT_NAME": "STARLINK-35051",
    "OBJECT_ID": "25191B",
    "EPOCH": "2025-11-11T06:35:36.822336",
    "MEAN_MOTION": 15.05723032,
    "ECCENTRICITY": 0.0001892,
    "INCLINATION": 97.6024,
    "RA_OF_ASC_NODE": 184.8396,
    "ARG_OF_PERICENTER": 79.1085,
    "MEAN_ANOMALY": 281.0355,
    "EPHEMERIS_TYPE": 0,
    "CLASSIFICATION_TYPE": "U",
    "NORAD_CAT_ID": 65380,
    "ELEMENT_SET_NO": 999,
    "REV_AT_EPOCH": 1246,
    "BSTAR": 0.0031791000000000002,
    "MEAN_MOTION_DOT": 0.000462,
    "MEAN_MOTION_DDOT": 0.0,
    "TLE_LINE1": "1 65380U 25191B   25315.27473174  .00046200  00000+0  31791-2 0  9995",
    "TLE_LINE2": "2 65380  97.6024 184.8396 0001892  79.1085 281.0355 15.05723032 12466",
    "COMMENT": "Grouped by shell and plane from TLE"
  },
  {
    "OBJECT_NAME": "STARLINK-35028",
    "OBJECT_ID": "25191C",
    "EPOCH": "2025-11-11T04:35:59.089632",
    "MEAN_MOTION": 15.05661056,
    "ECCENTRICITY": 0.0001946,
    "INCLINATION": 97.6002,
    "RA_OF_ASC_NODE": 184.7972,
    "ARG_OF_PERICENTER": 79.5694,
    "MEAN_ANOMALY": 280.5752,
    "EPHEMERIS_TYPE": 0,
    "CLASSIFICATION_TYPE": "U",
    "NORAD_CAT_ID": 65381,
    "ELEMENT_SET_NO": 999,
    "REV_AT_EPOCH": 1244,
    "BSTAR": 0.0009021599999999999,
    "MEAN_MOTION_DOT": 0.00012984,
    "MEAN_MOTION_DDOT": 0.0,
    "TLE_LINE1": "1 65381U 25191C   25315.19165613  .00012984  00000+0  90216-3 0  9993",
    "TLE_LINE2": "2 65381  97.6002 184.7972 0001946  79.5694 280.5752 15.05661056 12442",
    "COMMENT": "Grouped by shell and plane from TLE"
  }
]